NORAD_CAT_ID,OBJECT_NAME,OBJECT_TYPE,EPOCH,MEAN_MOTION,ECCENTRICITY,INCLINATION,RA_OF_ASC_NODE,ARG_OF_PERICENTER,MEAN_ANOMALY,BSTAR,MEAN_MOTION_DOT,MEAN_MOTION_DDOT,TLE_LINE0,TLE_LINE1,TLE_LINE2,SEMIMAJOR_AXIS,PERIOD,APOGEE,PERIGEE,DECAYED
50848.0,STARLINK-3315,PAYLOAD,2022-09-15 01:07:39,15.0883075,0.0001813,53.218,127.758,51.6994,308.4161,2.1557e-05,5.5e-07,0.0,0 STARLINK-3315,1 50848U 22001AX  22258.04698591  .00000055  00000-0  21557-4 0  9995,2 50848  53.2180 127.7580 0001813  51.6994 308.4161 15.08830750 38295,6917.909000000002,95.438,541.028,538.519,0.0
50848.0,STARLINK-3315,PAYLOAD,2022-09-15 23:23:02,15.08841053,0.0001554,53.2196,123.5953,43.4787,316.6327,0.00013806,1.91e-05,0.0,0 STARLINK-3315,1 50848U 22001AX  22258.97433648  .00001910  00000-0  13806-3 0  9995,2 50848  53.2196 123.5953 0001554  43.4787 316.6327 15.08841053 39745,6917.877,95.437,540.817,538.6669999999998,0.0
50848.0,STARLINK-3315,PAYLOAD,2022-09-16 15:16:54,15.088448199999998,0.0001885999999999,53.2185,120.6225,40.9031,319.2102,-2.3854e-05,-6.68e-06,0.0,0 STARLINK-3315,1 50848U 22001AX  22259.63673939 -.00000668  00000-0 -23854-4 0  9994,2 50848  53.2185 120.6225 0001886  40.9031 319.2102 15.08844820 38536,6917.866,95.437,541.035,538.4259999999998,0.0
50848.0,STARLINK-3315,PAYLOAD,2022-09-17 00:49:14,15.08829468,0.0001894,53.2183,118.8384,42.8125,317.3014,6.8319000000000015e-06,-1.79e-06,0.0,0 STARLINK-3315,1 50848U 22001AX  22260.03419068 -.00000179  00000-0  68319-5 0  9993,2 50848  53.2183 118.8384 0001894  42.8125 317.3014 15.08829468 39907,6917.913000000001,95.438,541.0880000000002,538.467,0.0
50848.0,STARLINK-3315,PAYLOAD,2022-09-17 07:10:46,15.08836539,0.0001819,53.2172,117.65,44.257,315.8567,-2.3175e-05,-6.57e-06,0.0,0 STARLINK-3315,1 50848U 22001AX  22260.29914771 -.00000657  00000-0 -23175-4 0  9994,2 50848  53.2172 117.6500 0001819  44.2570 315.8567 15.08836539 38631,6917.891,95.438,541.014,538.498,0.0
50848.0,STARLINK-3315,PAYLOAD,2022-09-17 21:29:13,15.08853823,0.0001484,53.2182,114.9731,48.4375,311.6744,-0.00010015,-1.882e-05,0.0,0 STARLINK-3315,1 50848U 22001AX  22260.89529951 -.00001882  00000-0 -10015-3 0  9991,2 50848  53.2182 114.9731 0001484  48.4375 311.6744 15.08853823 40038,6917.8380000000025,95.437,540.73,538.677,0.0
50848.0,STARLINK-3315,PAYLOAD,2022-09-18 00:39:59,15.08867222,0.0001283,53.2185,114.3781,53.3334,306.7776,-0.00022868,-3.928e-05,0.0,0 STARLINK-3315,1 50848U 22001AX  22261.02777395 -.00003928  00000-0 -22868-3 0  9996,2 50848  53.2185 114.3781 0001283  53.3334 306.7776 15.08867222 38740,6917.797,95.436,540.55,538.775,0.0
50848.0,STARLINK-3315,PAYLOAD,2022-09-18 19:44:38,15.0883295,0.0001918,53.2187,110.81,49.0267,311.0891,8.8356e-05,1.118e-05,0.0,0 STARLINK-3315,1 50848U 22001AX  22261.82266736  .00001118  00000-0  88356-4 0  9998,2 50848  53.2187 110.8100 0001918  49.0267 311.0891 15.08832950 40177,6917.901999999999,95.438,541.094,538.44,0.0
50848.0,STARLINK-3315,PAYLOAD,2022-09-18 21:20:01,15.08833239,0.0001921999999999,53.2187,110.5126,48.984,311.1318,8.9341e-05,1.134e-05,0.0,0 STARLINK-3315,1 50848U 22001AX  22261.88890749  .00001134  00000-0  89341-4 0  9994,2 50848  53.2187 110.5126 0001922  48.9840 311.1318 15.08833239 38872,6917.901,95.438,541.096,538.436,0.0
50848.0,STARLINK-3315,PAYLOAD,2022-09-18 22:55:24,15.0883488,0.0001924,53.2187,110.2153,48.7293,311.3865,0.00010162,1.329e-05,0.0,0 STARLINK-3315,1 50848U 22001AX  22261.95514642  .00001329  00000-0  10162-3 0  9997,2 50848  53.2187 110.2153 0001924  48.7293 311.3865 15.08834880 38884,6917.896,95.438,541.092,538.43,0.0
50848.0,STARLINK-3315,PAYLOAD,2022-09-20 13:04:39,15.08842362,0.0001916999999999,53.2184,103.0783,47.8933,312.2222,6.8503e-05,8.02e-06,0.0,0 STARLINK-3315,1 50848U 22001AX  22263.54490300  .00000802  00000-0  68503-4 0  9996,2 50848  53.2184 103.0783 0001917  47.8933 312.2222 15.08842362 39122,6917.873000000001,95.437,541.064,538.4119999999998,0.0
50848.0,STARLINK-3315,PAYLOAD,2022-09-21 00:12:22,15.08833916,0.0001947,53.2185,100.997,48.2513,311.8646,-3.1059e-06,-3.38e-06,0.0,0 STARLINK-3315,1 50848U 22001AX  22264.00859077 -.00000338  00000-0 -31059-5 0  9991,2 50848  53.2185 100.9970 0001947  48.2513 311.8646 15.08833916 40503,6917.899,95.438,541.111,538.4169999999998,0.0
50848.0,STARLINK-3315,PAYLOAD,2022-09-21 16:06:13,15.08854159,0.0002299,53.2174,98.0252,47.4798,312.6388,-0.00015843,-2.81e-05,0.0,0 STARLINK-3315,1 50848U 22001AX  22264.67099356 -.00002810  00000-0 -15843-3 0  9998,2 50848  53.2174  98.0252 0002299  47.4798 312.6388 15.08854159 40603,6917.837,95.437,541.293,538.112,0.0
50848.0,STARLINK-3315,PAYLOAD,2022-09-22 19:07:46,15.08840081,0.0001952,53.2197,92.9694,44.6145,315.5004,4.512e-05,4.3e-06,0.0,0 STARLINK-3315,1 50848U 22001AX  22265.79706782  .00000430  00000-0  45120-4 0  9996,2 50848  53.2197  92.9694 0001952  44.6145 315.5004 15.08840081 40775,6917.88,95.438,541.096,538.395,0.0
50848.0,STARLINK-3315,PAYLOAD,2022-09-22 23:53:56,15.0884218,0.0001879,53.2191,92.076,54.5429,305.5739,-0.00013975,-2.512e-05,0.0,0 STARLINK-3315,1 50848U 22001AX  22265.99579098 -.00002512  00000-0 -13975-3 0  9993,2 50848  53.2191  92.0760 0001879  54.5429 305.5739 15.08842180 39490,6917.874,95.437,541.039,538.439,0.0
50848.0,STARLINK-3315,PAYLOAD,2022-09-23 18:58:29,15.0890794,0.0001422,53.2195,88.5083,48.9427,311.1688,0.0006023,9.328e-05,0.0,0 STARLINK-3315,1 50848U 22001AX  22266.79061368  .00009328  00000-0  60230-3 0  9994,2 50848  53.2195  88.5083 0001422  48.9427 311.1688 15.08907940 39617,6917.6730000000025,95.433,540.521,538.554,0.0
50848.0,STARLINK-3315,PAYLOAD,2022-09-24 18:49:20,15.08845652,0.0001962,53.2193,84.0482,51.6334,308.4834,0.00017126,2.439e-05,0.0,0 STARLINK-3315,1 50848U 22001AX  22267.78426133  .00002439  00000-0  17126-3 0  9991,2 50848  53.2193  84.0482 0001962  51.6334 308.4834 15.08845652 41072,6917.863,95.437,541.085,538.371,0.0
50848.0,STARLINK-3315,PAYLOAD,2022-09-25 04:21:39,15.08838022,0.0001943999999999,53.219,82.2643,49.0108,311.1052,9.0109e-05,1.146e-05,0.0,0 STARLINK-3315,1 50848U 22001AX  22268.18170799  .00001146  00000-0  90109-4 0  9997,2 50848  53.2190  82.2643 0001944  49.0108 311.1052 15.08838022 41131,6917.886,95.438,541.096,538.4069999999998,0.0
50848.0,STARLINK-3315,PAYLOAD,2022-09-25 18:40:08,15.08836585,0.0001753,53.2203,79.5875,59.0839,301.0325,-2.1188e-05,-6.25e-06,0.0,0 STARLINK-3315,1 50848U 22001AX  22268.77787264 -.00000625  00000-0 -21188-4 0  9997,2 50848  53.2203  79.5875 0001753  59.0839 301.0325 15.08836585 39918,6917.891,95.438,540.969,538.543,0.0
50848.0,STARLINK-3315,PAYLOAD,2022-09-26 04:12:27,15.08821399,7.97e-05,53.2192,77.803,101.298,258.8101,0.00020087,2.909e-05,0.0,0 STARLINK-3315,1 50848U 22001AX  22269.17531488  .00002909  00000-0  20087-3 0  9998,2 50848  53.2192  77.8030 0000797 101.2980 258.8101 15.08821399 39977,6917.937,95.439,540.354,539.251,0.0
50848.0,STARLINK-3315,PAYLOAD,2022-09-26 13:44:45,15.08843665,0.0001885999999999,53.2191,76.0187,49.2174,310.8982,-4.6088e-05,-1.022e-05,0.0,0 STARLINK-3315,1 50848U 22001AX  22269.57275097 -.00001022  00000-0 -46088-4 0  9990,2 50848  53.2191  76.0187 0001886  49.2174 310.8982 15.08843665 41346,6917.869000000002,95.437,541.039,538.429,0.0
50848.0,STARLINK-3315,PAYLOAD,2022-09-28 13:26:20,15.0883529,0.0002034,53.2189,67.0984,53.4498,306.6681,3.5515e-06,-2.32e-06,0.0,0 STARLINK-3315,1 50848U 22001AX  22271.55995676 -.00000232  00000-0  35515-5 0  9998,2 50848  53.2189  67.0984 0002034  53.4498 306.6681 15.08835290 40332,6917.895,95.438,541.1669999999998,538.3530000000002,0.0
50848.0,STARLINK-3315,PAYLOAD,2022-09-28 19:47:52,15.08838552,0.0001851,53.2194,65.9086,40.496,319.6169,3.696300000000001e-05,3e-06,0.0,0 STARLINK-3315,1 50848U 22001AX  22271.82491452  .00000300  00000-0  36963-4 0  9993,2 50848  53.2194  65.9086 0001851  40.4960 319.6169 15.08838552 40377,6917.885,95.438,541.03,538.469,0.0
50848.0,STARLINK-3315,PAYLOAD,2022-09-29 11:41:43,15.08846901,0.0002,53.2194,62.935,45.0896,315.0258,0.00013436,1.851e-05,0.0,0 STARLINK-3315,1 50848U 22001AX  22272.48730745  .00001851  00000-0  13436-3 0  9998,2 50848  53.2194  62.9350 0002000  45.0896 315.0258 15.08846901 41786,6917.859,95.437,541.1080000000002,538.341,0.0
50848.0,STARLINK-3315,PAYLOAD,2022-09-29 13:17:06,15.08842658,0.0001816,53.2191,62.6373,45.3868,314.7272,7.7689e-05,9.49e-06,0.0,0 STARLINK-3315,1 50848U 22001AX  22272.55355102  .00000949  00000-0  77689-4 0  9994,2 50848  53.2191  62.6373 0001816  45.3868 314.7272 15.08842658 40484,6917.871999999999,95.437,540.994,538.481,0.0
50848.0,STARLINK-3315,PAYLOAD,2022-09-29 19:38:39,15.08839093,0.0001872,53.2195,61.4483,41.8133,318.3002,2.1001e-05,4.6e-07,0.0,0 STARLINK-3315,1 50848U 22001AX  22272.81851524  .00000046  00000-0  21001-4 0  9997,2 50848  53.2195  61.4483 0001872  41.8133 318.3002 15.08839093 41835,6917.8830000000025,95.438,541.043,538.453,0.0
50848.0,STARLINK-3315,PAYLOAD,2022-09-30 11:32:30,15.08848674,0.0002035,53.2192,58.4761,37.6638,322.4497,0.00017562,2.509e-05,0.0,0 STARLINK-3315,1 50848U 22001AX  22273.48090689  .00002509  00000-0  17562-3 0  9990,2 50848  53.2192  58.4761 0002035  37.6638 322.4497 15.08848674 40627,6917.854,95.437,541.127,538.311,0.0
50848.0,STARLINK-3315,PAYLOAD,2022-09-30 16:18:39,15.0885164,0.0002387999999999,53.2188,57.5847,34.0932,326.0213,0.00015456,2.173e-05,0.0,0 STARLINK-3315,1 50848U 22001AX  22273.67962598  .00002173  00000-0  15456-3 0  9995,2 50848  53.2188  57.5847 0002388  34.0932 326.0213 15.08851640 41967,6917.845,95.437,541.362,538.058,0.0
50848.0,STARLINK-3315,PAYLOAD,2022-09-30 19:29:26,15.08838462,0.0002093,53.2182,56.9886,40.2336,319.8811,0.00016442,2.329e-05,0.0,0 STARLINK-3315,1 50848U 22001AX  22273.81211385  .00002329  00000-0  16442-3 0  9991,2 50848  53.2182  56.9886 0002093  40.2336 319.8811 15.08838462 40675,6917.885,95.438,541.198,538.302,0.0
